OUTPOST MISSION 1       
1 56226U 23084BK  26068.97193801  .00102103  00000+0  83979-3 0  9993
2 56226  97.5968 222.1792 0004729 254.2575 105.8165 15.70083334153328
STARLINK-11501 [DTC]    
1 62268U 24237B   26068.94503307  .00212557  00000+0  16123-2 0  9991
2 62268  42.9996  54.9640 0001067 217.8116 142.2676 15.70924261 73042
